OBJECT_NAME,OBJECT_ID,EPOCH,MEAN_MOTION,ECCENTRICITY,INCLINATION,RA_OF_ASC_NODE,ARG_OF_PERICENTER,MEAN_ANOMALY,EPHEMERIS_TYPE,CLASSIFICATION_TYPE,NORAD_CAT_ID,ELEMENT_SET_NO,REV_AT_EPOCH,BSTAR,MEAN_MOTION_DOT,MEAN_MOTION_DDOT
SIRION PATHFINDER-2,2018-099B,2026-06-19T16:36:57.825216,15.14565833,.00071576,97.4247,219.6903,293.9955,66.0528,0,U,43759,999,41300,.22349746E-3,.4059E-4,0
CORVUS BC4,2018-099K,2026-06-20T08:43:58.349856,15.12515737,.000797,97.4063,214.2513,2.4848,357.6421,0,U,43767,999,41288,.17292E-3,.295E-4,0
M2 PATHFINDER,2020-037E,2026-06-20T10:31:18.687936,15.04684164,.001254,97.8142,2.7066,136.7896,223.4315,0,U,45727,999,32598,.91194E-4,.1221E-4,0
NETSAT-4,2020-068U,2026-06-19T23:26:15.148608,15.43941889,.00035369,97.8606,179.4415,325.1547,34.9468,0,U,46504,999,31620,.33293789E-3,.15061E-3,0
NETSAT-3,2020-068V,2026-06-20T10:32:09.460032,15.42775919,.000373,97.8657,178.1532,347.9901,12.1255,0,U,46505,999,31618,.37245E-3,.16213E-3,0
NETSAT-1,2020-068W,2026-06-19T22:32:20.370624,15.34696284,.00047071,97.8748,171.9127,24.0550,336.0910,0,U,46506,999,31572,.3133461E-3,.10455E-3,0
NETSAT-2,2020-068X,2026-06-20T00:18:21.534336,15.46101808,.0003088,97.8618,179.3850,17.4041,342.7313,0,U,46507,999,31617,.40674271E-3,.19839E-3,0
GREENCUBE (IO-117),2022-080E,2026-06-20T07:07:43.074912,6.42583222,.0008923,70.1444,297.1634,288.8810,71.0882,0,U,53109,999,9226,0,-.3E-7,0
SITRO-AIS 5 (KATYS),2023-091L,2026-06-20T09:45:28.956960,15.29518602,.0012707,97.5056,235.3369,93.5424,266.7269,0,U,57176,999,16483,.35736E-3,.10175E-3,0
SITRO-AIS 6 (CHIRKIN),2023-091AC,2026-06-20T09:25:52.576032,15.25985001,.0013089,97.5062,234.4251,96.6916,263.5812,0,U,57192,999,16477,.33853E-3,.8649E-4,0
SITRO-AIS 8 (ANOKHIN),2023-091AD,2026-06-20T10:01:52.773024,15.32211056,.001171,97.5051,236.9502,90.0365,270.2218,0,U,57193,999,16494,.38868E-3,.12039E-3,0
SITRO-AIS 7 (FARTUSHNIY),2023-091AE,2026-06-20T09:31:21.290016,15.25672072,.0012947,97.5059,234.2523,97.5940,262.6768,0,U,57194,999,16476,.3342E-3,.8457E-4,0
SITRO-AIS 10 (BURDAEV),2023-091AK,2026-06-20T10:27:41.789376,15.38716536,.0007284,97.5075,242.0561,70.7474,289.4558,0,U,57199,999,16526,.44399E-3,.16933E-3,0
SITRO-AIS 9 (SHCHUKIN),2023-091AM,2026-06-20T11:07:12.625248,15.38222800,.0007548,97.5073,241.8115,70.6764,289.5297,0,U,57201,999,16525,.44967E-3,.16878E-3,0
SITRO-AIS 12 (SMIRENNIY),2023-091AQ,2026-06-20T10:52:48.398880,15.38515781,.0007058,97.5087,242.2705,65.6570,294.5411,0,U,57204,999,16527,.43566E-3,.16504E-3,0
SITRO-AIS 11 (SHEFFER),2023-091AU,2026-06-20T11:10:49.446048,15.38942801,.0006969,97.5084,242.5320,65.6009,294.5963,0,U,57208,999,16529,.44666E-3,.17161E-3,0
GRBBETA,2024-128C,2026-06-20T09:44:12.562080,15.06654606,.0040241,61.9881,204.9739,135.3081,225.1267,0,U,60237,999,10675,.16133E-3,.2226E-4,0
OOV-CUBE (TUBSAT-30),2024-128F,2026-06-20T10:46:29.254080,15.02783719,.0044227,61.9929,214.1994,134.4761,225.9960,0,U,60240,999,10660,.10887E-3,.1277E-4,0
ROBUSTA-3A (MEDITERRANEE),2024-128J,2026-06-20T10:36:44.265600,15.11702693,.0041011,61.9846,196.7324,128.5967,231.8813,0,U,60243,999,10691,.25756E-3,.4267E-4,0
LASARSAT,2024-247Q,2026-06-20T06:29:39.147072,15.46534749,.0007836,44.9733,244.8864,348.4451,11.6258,0,U,62391,999,8379,.56523E-3,.28493E-3,0
CROCUBE,2024-247T,2026-06-19T11:46:17.971392,15.48397693,.00077409,44.9701,246.5654,349.0739,10.9982,0,U,62394,999,8370,.60621754E-3,.32668E-3,0
FORESAIL-1 PRIME,2025-276DS,2026-06-19T10:25:32.106432,15.18719306,.00039613,97.4197,243.6644,98.6161,261.5522,0,U,66778,999,3074,.19871349E-3,.4058E-4,0
KNACKSAT-2,1998-067XZ,2026-06-19T14:13:09.931584,15.60167582,.00089348,51.6307,282.3774,225.7617,134.2643,0,U,67683,999,2065,.49084338E-3,.40473E-3,0
